{
  "type": "FeatureCollection",
  "features": [
    {
      "type": "Feature",
      "properties": {
        "norad_id": 50032,
        "name": "COSMOS 1408 DEB",
        "group": "cosmos-1408-debris",
        "lat": -32.336278569108686,
        "lon": 41.25343657711276,
        "alt_km": 445.9326274492596,
        "timestamp": "2025-12-24T22:42:22.301628+00:00",
        "meta_object_name": "COSMOS 1408 DEB",
        "meta_object_id": "1982-092RU",
        "meta_epoch": "2025-12-24T04:12:15.693696",
        "meta_mean_motion": 15.45804792,
        "meta_eccentricity": 0.0016419,
        "meta_inclination": 82.5629,
        "meta_ra_of_asc_node": 46.7873,
        "meta_arg_of_pericenter": 166.3553,
        "meta_mean_anomaly": 193.8144,
        "meta_ephemeris_type": 0,
        "meta_classification_type": "U",
        "meta_norad_cat_id": 50032,
        "meta_element_set_no": 999,
        "meta_rev_at_epoch": 22780,
        "meta_bstar": 0.00011014701,
        "meta_mean_motion_dot": 5.403e-05,
        "meta_mean_motion_ddot": 0,
        "tle_line1": "1 50032U 82092RU  25358.17518164  .00005403  00000+0  11015-3 0  9999",
        "tle_line2": "2 50032  82.5629  46.7873 0016419 166.3553 193.8144 15.45804792227803"
      },
      "geometry": {
        "type": "Point",
        "coordinates": [
          41.25343657711276,
          -32.336278569108686
        ]
      }
    },
    {
      "type": "Feature",
      "properties": {
        "norad_id": 50058,
        "name": "COSMOS 1408 DEB",
        "group": "cosmos-1408-debris",
        "lat": -82.60653370239909,
        "lon": -33.930802200192474,
        "alt_km": 390.12648950779294,
        "timestamp": "2025-12-24T22:42:22.301650+00:00",
        "meta_object_name": "COSMOS 1408 DEB",
        "meta_object_id": "1982-092SW",
        "meta_epoch": "2025-12-24T04:40:25.997376",
        "meta_mean_motion": 15.64782282,
        "meta_eccentricity": 0.00158541,
        "meta_inclination": 82.6121,
        "meta_ra_of_asc_node": 57.3466,
        "meta_arg_of_pericenter": 60.3761,
        "meta_mean_anomaly": 299.9075,
        "meta_ephemeris_type": 0,
        "meta_classification_type": "U",
        "meta_norad_cat_id": 50058,
        "meta_element_set_no": 999,
        "meta_rev_at_epoch": 22983,
        "meta_bstar": 0.00034052398,
        "meta_mean_motion_dot": 0.00033423,
        "meta_mean_motion_ddot": 0,
        "tle_line1": "1 50058U 82092SW  25358.19474534  .00033423  00000+0  34052-3 0  9990",
        "tle_line2": "2 50058  82.6121  57.3466 0015854  60.3761 299.9075 15.64782282229837"
      },
      "geometry": {
        "type": "Point",
        "coordinates": [
          -33.930802200192474,
          -82.60653370239909
        ]
      }
    },
    {
      "type": "Feature",
      "properties": {
        "norad_id": 50404,
        "name": "COSMOS 1408 DEB",
        "group": "cosmos-1408-debris",
        "lat": -2.5309662947663196,
        "lon": -157.8280827713292,
        "alt_km": 629.6576022643785,
        "timestamp": "2025-12-24T22:42:22.301664+00:00",
        "meta_object_name": "COSMOS 1408 DEB",
        "meta_object_id": "1982-092ADS",
        "meta_epoch": "2025-12-24T06:52:22.036224",
        "meta_mean_motion": 15.15593278,
        "meta_eccentricity": 0.01671175,
        "meta_inclination": 82.2021,
        "meta_ra_of_asc_node": 203.1965,
        "meta_arg_of_pericenter": 159.1978,
        "meta_mean_anomaly": 201.6165,
        "meta_ephemeris_type": 0,
        "meta_classification_type": "U",
        "meta_norad_cat_id": 50404,
        "meta_element_set_no": 999,
        "meta_rev_at_epoch": 21368,
        "meta_bstar": 0.0036317583,
        "meta_mean_motion_dot": 0.00099565,
        "meta_mean_motion_ddot": 0,
        "tle_line1": "1 50404U 82092ADS 25358.28636616  .00099565  00000+0  36318-2 0  9991",
        "tle_line2": "2 50404  82.2021 203.1965 0167117 159.1978 201.6165 15.15593278213686"
      },
      "geometry": {
        "type": "Point",
        "coordinates": [
          -157.8280827713292,
          -2.5309662947663196
        ]
      }
    },
    {
      "type": "Feature",
      "properties": {
        "norad_id": 50621,
        "name": "COSMOS 1408 DEB",
        "group": "cosmos-1408-debris",
        "lat": -42.22914499701173,
        "lon": 54.66282244504455,
        "alt_km": 419.50745537527746,
        "timestamp": "2025-12-24T22:42:22.301675+00:00",
        "meta_object_name": "COSMOS 1408 DEB",
        "meta_object_id": "1982-092ALR",
        "meta_epoch": "2025-12-24T04:23:00.556512",
        "meta_mean_motion": 15.57235404,
        "meta_eccentricity": 0.00291233,
        "meta_inclination": 82.5683,
        "meta_ra_of_asc_node": 62.263,
        "meta_arg_of_pericenter": 111.4174,
        "meta_mean_anomaly": 249.0193,
        "meta_ephemeris_type": 0,
        "meta_classification_type": "U",
        "meta_norad_cat_id": 50621,
        "meta_element_set_no": 999,
        "meta_rev_at_epoch": 22428,
        "meta_bstar": 0.00037737815,
        "meta_mean_motion_dot": 0.00028099,
        "meta_mean_motion_ddot": 0,
        "tle_line1": "1 50621U 82092ALR 25358.18264533  .00028099  00000+0  37738-3 0  9998",
        "tle_line2": "2 50621  82.5683  62.2630 0029123 111.4174 249.0193 15.57235404224285"
      },
      "geometry": {
        "type": "Point",
        "coordinates": [
          54.66282244504455,
          -42.22914499701173
        ]
      }
    }
  ]
}